#dP2023 12  8  0  0  0.00000000      97 __u+U IGS20 FIT  IAC
## 2291 432000.00000000   900.00000000 60286 0.0000000000000
+  116   C06C07C08C09C10C11C12C13C14C16C19C20C21C22C23C24C25
+        C26C27C28C29C30C32C33C34C35C36C37C38C39C40C41C42C43
+        C44C45C46E02E03E04E05E07E08E09E10E11E12E13E15E18E19
+        E21E24E25E26E27E30E31E33E34E36G01G02G03G04G05G06G07
+        G09G10G11G12G13G14G15G16G17G18G19G20G21G22G23G24G25
+        G26G27G28G29G30G31G32J02J03J04R01R02R03R04R05R07R08
+        R09R11R12R13R14R15R16R17R18R19R20R21R22R24  0  0  0
++         8  7  7  7  7  6  7  7  6  7  6  6  5  6  6  5  5
++         5  6  6  5  5  6  6  5  6  5  6  6  9  6  6  5  6
++         6  5  6  4  4  4  4  4  4  4  4  4  4  4  4  4  4
++         4  4  4  4  4  4  4  4  4  4  4  3  3  3  4  3  3
++         3  3  4  3  3  3  3  4  3  3  3  4  3  3  3  3  3
++         4  4  3  3  3  3  3  9  9  9  7  6  6  7  7  7  7
++         7  6  6  7  7  7  7  7  7  8  8  7  7  6  0  0  0
%c M  cc GPS ccc cccc cccc cccc cccc ccccc ccccc ccccc ccccc
%c cc cc ccc ccc cccc cccc cccc cccc ccccc ccccc ccccc ccccc
%f  1.2500000  1.025000000  0.00000000000  0.000000000000000
%f  0.0000000  0.000000000  0.00000000000  0.000000000000000
%i    0    0    0    0      0      0      0      0         0
%i    0    0    0    0      0      0      0      0         0
/* INFORMATION & ANALYSIS CENTER (IAC)            FINAL DATA
/* S/V CLOCKS ARE ALIGNED TO GNSS TIME                      
/* G:C1WC2W R:C1PC2P E:C1XC5X C:C2IC6I J:C1CC2S             
/* PCV:IGS20_2290 OL/AL:FES2004  NONE     YN ORB:CoN CLK:CoN
*  2023 12 08 17 15  0.00000000
PC06  -8788.418706  23118.781805 -34124.916652    198.205170
PC07 -15589.136091  37287.834800  11785.004248   -442.893658
PC08   -118.951145  37318.266883  19845.803596    193.134458
PC09   3087.838384  25641.038143 -32807.223192   -191.323912
PC10  -7732.251370  36907.233598  18639.489801    -45.935915
PC11  21663.141179  -9741.516892 -14584.507105    296.216321
PC12  27711.093674   1554.938499   2982.667190    832.428469
PC13   3801.363512  39486.346022  14871.660049    393.143916
PC14  17233.427465 -20211.268937  -8632.182286   -289.237177
PC16 -11181.518504  21696.849876 -34171.475347   -215.760131
PC19 -12693.780660  24837.872575   -491.154761   -955.602766
PC20 -18893.322592  13803.275064  15196.864589     47.010285
PC21  14188.317815   6628.039999 -23088.218388   -968.425375
PC22   1181.182975  22207.152137 -16854.543679   -194.418428
PC23  -9708.703604 -25149.428804   7187.347643   -807.214726
PC24  17739.875032   -984.496251  21505.908863    673.124889
PC25   4562.892097 -19012.666229  19888.443769    273.532323
PC26  20061.394396  16081.036867  10874.263702   -217.360926
PC27 -24741.475977  -6916.189318 -10925.314719    239.353131
PC28 -10263.637572 -14665.594364 -21398.654447    180.995979
PC29 -12687.570898  14881.678583  19907.229734    211.866513
PC30 -26810.993590   5621.831601   5376.673747     -9.959740
PC32 -14187.135015  -6668.008308  23097.054923   -540.918985
PC33  12589.270534 -24907.503605    405.267642   -942.166482
PC34  26253.597525  -6553.626779  -6788.295812    320.547353
PC35  10828.750434  14338.851023  21334.710579    485.254874
PC36  -5659.031323  18339.721681 -20248.769871   -101.302819
PC37 -19554.254170 -16975.190226 -10360.593560   -916.471514
PC38  -5933.548793  33262.503572  25384.378940    122.765585
PC39 -15073.810038  20801.499934 -33418.618737     -5.993506
PC40 -23166.681468  33407.648216  10718.363143    -47.058148
PC41   -702.076415 -22652.082315  16334.414817   -872.812970
PC42  18960.420888 -12433.210655 -16243.141916   -484.512283
PC43  13617.119472 -14721.532326 -19402.886439     51.492852
PC44  24873.629326   6136.749000  11018.299302    316.743255
PC45  10071.936831  25153.742018  -6749.922037    -53.193377
PC46 -17141.011496   2116.703821 -21921.992457   -105.925834
PE02 -16675.764993  -2604.053745 -24321.417448     84.961883
PE03 -26168.820144   4062.807536  13207.319019    -78.766296
PE04  23500.251986 -17259.412009   5090.774106   -275.490392
PE05 -13634.183863 -11374.932899  23679.761366   4698.546690
PE07  -7430.955790  20357.379181 -20162.459161    -91.979880
PE08 -23808.080585  16985.639339  -4552.956425   -189.103039
PE09   7627.133573 -20282.435578  20163.392862   -255.786702
PE10   6809.005067 -14538.508792 -24866.818282   -584.832165
PE11  -4441.381836 -19257.647803 -22041.099360   3256.344579
PE12  15884.943203  -8262.601179 -23563.352261   -810.258071
PE13   3721.803794  18976.075151  22419.717414    -19.658973
PE15 -16295.067449   7832.129317  23450.073151    -73.657527
PE18  26105.627637 -17604.148440  -5737.271739     71.801497
PE19  25340.029404  -2065.470065 -15152.860141  -1055.770069
PE21  10936.986630  22054.436416  16440.230177   -567.896273
PE24   1852.448207 -29470.999446   1803.203937   -474.862227
PE25 -10745.790763 -22335.465068 -16169.635404     -2.264856
PE26  21639.449417  18704.485660   7641.229899    303.836051
PE27  -1448.095103  29542.527149  -1364.719160   -219.227058
PE30 -13080.080296  19221.739884 -18343.473435   -725.706084
PE31  12843.622087 -19519.515714  18169.960350    -11.360233
PE33  26558.491214   8195.219055 -10186.056134      3.827217
PE34 -26487.935932  -7683.801872  10735.756042    -82.259600
PE36 -21263.988253 -18851.276667  -8283.383995   -154.921490
PG01 -22220.417017 -14860.775397  -1331.393484    163.713962
PG02 -20355.825495 -15429.818185  -7173.344583   -518.335752
PG03 -11720.174282 -15625.014567  17902.977919     40.223036
PG04 -18057.706551  -5365.288543  18783.184002    234.152698
PG05   6511.872989  24397.577569  -8262.516602   -153.363395
PG06  -7626.136329  12470.151638  22248.988815    483.959818
PG07 -23055.532472  -3128.589495 -12755.030909     -6.802452
PG09 -23664.553744   5071.626936  10923.339613     20.660266
PG10  10875.049373 -17883.799297 -15953.252302    -64.514489
PG11   3838.070145  18257.820742  18946.790143   -492.719476
PG12  10542.513930  17077.679171  17155.665895   -455.339135
PG13   -419.825732  15913.213500 -21428.796061    603.556234
PG14 -13389.691615  14330.579110 -17807.355542    265.284761
PG15  12222.738327  10684.445846 -21528.008756    104.931657
PG16    279.803782 -26132.079764  -3355.250752   -407.904924
PG17 -22815.670854  13455.523804   3219.194381    722.291042
PG18  22023.879052   1783.549537 -14857.764486   -500.897658
PG19 -17867.470679  15870.592633  11015.555042    409.711516
PG20    381.679994  26129.256517   5316.295377    397.659888
PG21 -18336.580151 -16697.798763 -10199.775568    142.113615
PG22 -10639.103476  21024.047139 -12096.381699     69.646982
PG23  14529.904656  -4937.089572 -21640.021786    112.499150
PG24  20196.755104  15963.748431  -7766.669635   -389.015348
PG25  15075.678711   4235.535498  21153.261031    480.675032
PG26   3717.987574 -25086.888469   7095.188123    210.828508
PG27   3413.931655 -17632.329750 -19685.214786    -80.417449
PG28   9868.476911 -11808.486137  21621.154663    -64.964013
PG29  23829.198120  -2424.478225  11542.627180   -609.909884
PG30 -16951.447151   6478.467382 -19356.404367   -459.708831
PG31   1702.357031 -16223.231962  20675.706312   -226.437381
PG32  19979.491711 -16316.693091   6026.696843   -594.299529
PJ02 -22459.430979  30166.546260 -14323.132772     -0.471007
PJ03 -27611.341484  23454.386694  26793.410225    -11.162923
PJ04 -31241.327723  27956.054733  10568.512591     73.780201
PR01 -17094.988663  17762.127237   6542.108146     71.656662
PR02  -9962.670726  20705.240586 -11116.284158    -22.318253
PR03   3585.360673  12225.099319 -22068.061798     90.520601
PR04  14581.872123  -2842.625750 -20703.738330    214.371820
PR05  17906.612562 -16220.884770  -8123.264467    123.482751
PR07  -4352.842432 -11475.537768  22388.509161     70.881805
PR08 -14782.123652   3079.514943  20626.083823    -73.587776
PR09  -2923.448842 -22131.492635  12429.982457    157.596106
PR11 -13983.001238 -11155.228707 -18184.965325   -219.471421
PR12  -8063.432150   8816.997927 -22519.142098     34.250952
PR13   1347.726522  21035.188998 -14389.160555    -42.108358
PR14  11600.318213  22266.339484   4468.851891     25.723777
PR15  13871.179105   9850.963610  19018.916434     84.121058
PR16   8036.099324  -8521.660308  22667.619619     21.351113
PR17  16027.706235  10272.634002  17016.363548     41.762756
PR18  24894.028703   5012.792198   2157.620642    115.866529
PR19  22125.388186  -1466.897768 -12606.896312   -257.555877
PR20   3673.343917  -9827.523158 -23232.928405   -104.811389
PR21 -16414.047181 -10213.287202 -16616.926201    -59.438926
PR22 -24938.700170  -5285.383078  -1019.549349     97.305080
PR24  -2733.840552  10568.869575  23077.548119    -35.169450
EOF
